K07J22G 21.1   0.15 K14C9 181.86373    6.60530  227.34512   12.02164  0.5046214  0.19658915   2.9292944  8 MPO120887    22   1    2 days 0.41 M-v 38h MPCADO     2005          2007 JG22          20070514
K07K07H 16.7   0.15 K14C9 237.61548  354.78779  297.76360   22.75151  0.5029300  0.22196133   2.7015800  3 MPO140711   211   1  161 days 0.42 M-v 38h MPCADO     2005          2007 KH7           20071104
K07O06S 17.2   0.15 K14C9  71.20368  326.01463   40.08745   16.11008  0.5878135  0.16364067   3.3103600  0 MPO297862   472   3 2002-2013 0.33 M-v 38h MPCW       0005          2007 OS6           20131226
K07P00R 16.6   0.15 K14C9 122.34246   50.04827  318.18393   12.75778  0.5301388  0.18566385   3.0431112  0 MPO285689   415   3 2003-2014 0.42 M-v 38h MPCADO     0005          2007 PR            20140206
K07P07E 17.8   0.15 K14C9 109.57722  317.37205  308.06023    6.21723  0.5280302  0.16952720   3.2332786  2 MPO273917    33   3 2001-2013 0.48 M-v 38h MPCADO     0005          2007 PE7           20130915
K07R08W 18.7   0.15 K14C9 180.86009   33.96072   10.64855    3.36184  0.5153437  0.20867730   2.8150487  3 MPO143286   312   1  121 days 0.38 M-v 38h MPCW       2005          2007 RW8           20080104
K07RO2E 17.9   0.15 K14C9 138.05838   37.02785  352.62476    9.75942  0.5347006  0.19376814   2.9576570  1 MPO254759    38   2 2007-2013 0.54 M-v 38h MPCADO     0005          2007 RE242         20130210
K07S24A 15.1   0.15 K14C9 176.58242  109.04361  233.46254   17.08752  0.5667974  0.06266847   6.2772582  3 MPO191886    24   1  156 days 0.54 M-v 38h MPCS       2000          2007 SA24          20080228
K07TA6E 19.9   0.15 K14C9 147.24894  176.21435  215.38218   17.39360  0.5246842  0.19430804   2.9521757  1 MPO243165    50   2 2007-2012 0.38 M-v 38h MPCADO     0005          2007 TE106         20121113
K07U01Z 21.1   0.15 K14C9 156.56275    5.97497   23.96209   11.88529  0.5357413  0.19915226   2.9041066  2 MPO239601    47   3 2002-2012 0.38 M-v 38h MPCADO     0005          2007 UZ1           20121023
K07V06R 16.7   0.15 K14C9  57.74055  123.87690  311.13710   68.65932  0.5856685  0.15679218   3.4060665  1 MPO288450   105   2 2007-2014 0.30 M-v 38h MPCADO     0005          2007 VR6           20140228
K07V10G 20.5   0.15 K14C9 176.60519  178.24296  225.43903    6.19386  0.5112948  0.20809976   2.8202547  5 MPO129031    18   1   12 days 0.15 M-v 38h MPCADO     2005          2007 VG10          20071117
K07VI6K 18.2   0.15 K14C9 188.20234  308.11119  168.94246   11.89516  0.5109162  0.21873857   2.7280509  4 MPO136003    58   1  120 days 0.57 M-v 38h MPCADO     2005          2007 VK186         20080311
K07VQ6W 15.0   0.15 K14C9 177.82460  226.14946  276.50309  108.34993  0.3903207  0.07744326   5.4510519  5 MPO132002    58   1   38 days 0.35 M-v 38h MPCK       2000          2007 VW266         20071220
K08A00S 18.2   0.15 K14C9 127.40759  326.78822   81.58432   21.94414  0.5455060  0.19111515   2.9849654  6 MPO132016    21   1   55 days 0.66 M-v 38h MPCS       2005          2008 AS            20080104
K08A28Q 19.4   0.15 K14C9 112.60504  314.72609  118.93261   27.84106  0.5605203  0.18316717   3.0707017  7 MPO133566    35   1   17 days 0.25 M-v 38h MPCADO     2005          2008 AQ28          20080127
K08A30X 17.4   0.15 K14C9  77.57172  246.47005  261.47485   21.30032  0.5055571  0.17554678   3.1589358  5 MPO132020    32   1   89 days 0.39 M-v 38h MPCS       2005          2008 AX30          20080116
K08B02G 16.9   0.15 K14C9 106.36108   86.14594  140.52581   18.98177  0.5551678  0.19049769   2.9914120  0 MPO268444   324   2 2008-2013 0.42 M-v 38h MPCADO     0005          2008 BG2           20130718
K08B18N 13.8   0.15 K14C9  11.00216  282.73484  168.46582   28.65894  0.9263589  0.00464335  35.5834583  5 MPO149032    33   1   14 days 0.35 M-v 38h MPCS       2000          2008 BN18          20080213
K08B45W 18.1   0.15 K14C9  80.69633   56.07211  167.99553   24.82478  0.5254896  0.18304191   3.0721024  4 MPO140193    45   1  131 days 0.52 M-v 38h MPCW       2005          2008 BW45          20080610
K08D83S 18.4   0.15 K14C9  35.39084  287.79516  324.25116    1.85005  0.5739051  0.17116182   3.2126602  1 MPO311308    87   2 2008-2014 0.23 M-v 38h MPCADO     0005          2008 DS83          20140918
K08E91A 18.2   0.15 K14C9 106.42407  330.21871  239.20732    8.40883  0.5379404  0.19518868   2.9432894  5 MPO141916    31   1   72 days 0.66 M-v 38h MPCW       2005          2008 EA91          20080427
K08GE5J 17.8   0.15 K14C9  80.68573  240.58702   43.45751   22.21176  0.5488694  0.18929515   3.0040678  4 MPO176258    34   1   60 days 0.52 M-v 38h MPCS       2005          2008 GJ145         20080605
K08J14S 13.2   0.15 K14C9  59.22494    1.91253  312.22757   26.03839  0.7409180  0.02495453  11.5976451  1 MPO175290   182   1  204 days 0.36 M-v 38h MPCM       2000          2008 JS14          20081126
K08J20O 17.2   0.15 K14C9  31.87341   37.04843  129.99596    6.71435  0.6023350  0.16285725   3.3209677  1 MPO297875    57   3 2001-2014 0.43 M-v 38h MPCADO     0005          2008 JO20          20140520
K08P01T 17.5   0.15 K14C9  46.16812  334.82290  328.29267   22.57102  0.5489532  0.17310551   3.1885663  3 MPO149034   173   1   93 days 0.40 M-v 38h MPCADO     2005          2008 PT1           20081001
K08Q01B 19.9   0.15 K14C9 139.76582  245.82399  126.55578   12.89613  0.5049545  0.22247030   2.6974580  5 MPO147451    14   1   58 days 0.51 M-v 38h MPCADO     2005          2008 QB1           20081020
K08R00C 17.9   0.15 K14C9 137.78856  148.89927  235.24428    9.76608  0.5006866  0.22277956   2.6949610  3 MPO175291   259   1  122 days 0.35 M-v 38h MPCADO     2005          2008 RC            20090102
K08S00U 20.1   0.15 K14C9  66.38889   21.55740   10.74968    7.13847  0.5372133  0.19109466   2.9851788  4 MPO147479    61   1   50 days 0.35 M-v 38h MPCADO     2005          2008 SU            20081109
K08S82E 14.8   0.15 K14C9  28.65400  300.29459   21.47192   17.43882  0.8343023  0.01153822  19.3959131  3 MPO167707    22   1   61 days 0.68 M-v 38h MPCS       2000          2008 SE82          20081124
K08T02A 19.1   0.15 K14C9 126.14862  209.40607  201.50301   34.95644  0.5098764  0.22062972   2.7124394  6 MPO147529    35   1   32 days 0.58 M-v 38h MPCADO     2005          2008 TA2           20081026
K08T10O 19.0   0.15 K14C9  53.05987   67.22767  354.63494   13.36251  0.5608099  0.18731321   3.0252210  3 MPO152511    67   1  120 days 0.51 M-v 38h MPCW       2005          2008 TO10          20090203
K08V00V 20.7   0.15 K14C9  82.44557  156.54118  234.56664   17.23809  0.5193824  0.19739894   2.9212777  2 MPO278239    62   2 2008-2013 0.25 M-v 38h MPCADO     0005          2008 VV            20131124
K08W11T 14.0   0.15 K14C9  78.77412  310.32934   61.06136    7.07949  0.6174303  0.03152176   9.9249670  5 MPO209874    21   1   38 days 0.63 M-v 38h MPCS       2000          2008 WT11          20081130
K08W95A 16.8   0.15 K14C9  42.45315  140.25242  264.89299   60.28645  0.8775632  0.01862183  14.0968181  4 MPO151115    35   1   27 days 0.46 M-v 38h MPCW       2000          2008 WA95          20081227
K08X00J 21.1   0.15 K14C9  91.66459   32.74809   81.09701   24.61625  0.5256226  0.20876732   2.8142394  7 MPO149168    14   1    6 days 0.21 M-v 38h MPCADO     2005          2008 XJ            20081207
K08Y02F 16.3   0.15 K14C9  20.20609   89.80468   59.57162   21.84702  0.5053669  0.17733572   3.1376553  0 MPO288469   220   3 2002-2014 0.37 M-v 38h MPCADO     0005          2008 YF2           20140212
K08YH2J 15.7   0.15 K14C9 260.74075  224.71467  247.01975    8.13633  0.5043815  0.11770097   4.1236584  5 MPO171554    29   1   60 days 0.74 M-v 38h MPCW       2000          2008 YJ172         20090227
K09A16U 16.1   0.15 K14C9  18.42411  227.36140  262.85086   70.06426  0.9184207  0.00854305  23.6988608  1 MPO158632    34   1  125 days 0.34 M-v 38h MPCM       2000          2009 AU16          20090511
K09B80L 16.3   0.15 K14C9 143.92571    8.11291   93.64995    9.04135  0.6421626  0.06482032   6.1375532  3 MPO154238    40   1  119 days 0.49 M-v 38h MPCS       2000          2009 BL80          20090220
K09BA3C 18.1   0.15 K14C9  49.91716   85.32695  356.98997    9.41940  0.5378351  0.18376871   3.0639970  3 MPO272320    45   2 2009-2013 0.42 M-v 38h MPCADO     0005          2009 BC103         20131009
K09D15B 16.8   0.15 K14C9  48.05018  273.19442  165.84025   20.93277  0.5582966  0.18216236   3.0819833  3 MPO273942    58   2 2009-2013 0.46 M-v 38h MPCADO     0005          2009 DB15          20130925
K09F23W 15.4   0.15 K14C9  53.68102  314.80325  179.86439   86.65425  0.8565734  0.02527895  11.4982045  3 MPO158638   164   1   55 days 0.37 M-v 38h MPCM       2005          2009 FW23          20090513
K09K05C 19.5   0.15 K14C9  46.84023   65.75492  186.01015    5.13107  0.5227452  0.20324368   2.8650004  1 MPO307003    38   3 2004-2014 0.28 M-v 38h MPCADO     0005          2009 KC5           20140821
K09O06X 18.7   0.15 K14C9  62.43104    1.95710  322.19013   25.46429  0.5079957  0.21603902   2.7507297  4 MPO162547    80   1   53 days 0.42 M-v 38h MPCADO     2005          2009 OX6           20090917
K09Q00F 18.5   0.15 K14C9 334.06111  347.82120  320.82948   28.35696  0.5534675  0.17015647   3.2253021  5 MPO162550    53   1   24 days 0.43 M-v 38h MPCADO     2005          2009 QF            20090908
K09Q06Y 14.8   0.15 K14C9  42.02844  195.06476  197.68932  137.65363  0.8349393  0.02222813  12.5275868  1 MPO181284   166   2 2009-2010 0.39 M-v 38h MPCW       0000          2009 QY6           20100508
K09Q19V 16.6   0.15 K14C9 303.37553  272.79412  148.96826   22.38310  0.5302964  0.17296199   3.1903299  6 MPO171651    23   1   31 days 0.45 M-v 38h MPCS       2005          2009 QV19          20090919
K09Q36A 18.4   0.15 K14C9 328.15845  357.49813  353.45032   19.46875  0.5270578  0.17205279   3.2015594  4 MPO164349    51   1   48 days 0.44 M-v 38h MPCADO     2005          2009 QA36          20091016
